{
  "type": "FeatureCollection",
  "features": [
    {
      "type": "Feature",
      "properties": {
        "norad_id": 38062,
        "name": "COSMOS 2251 DEB",
        "group": "cosmos-2251-debris",
        "lat": -64.23738157043805,
        "lon": 168.05964461547555,
        "alt_km": 600.5586670915409,
        "timestamp": "2025-12-02T06:27:53.409381+00:00",
        "meta_object_name": "COSMOS 2251 DEB",
        "meta_object_id": "1993-036BRU",
        "meta_epoch": "2025-11-30T17:10:53.743584",
        "meta_mean_motion": 14.93896276,
        "meta_eccentricity": 0.00118795,
        "meta_inclination": 74.0086,
        "meta_ra_of_asc_node": 314.734,
        "meta_arg_of_pericenter": 83.9086,
        "meta_mean_anomaly": 94.2953,
        "meta_ephemeris_type": 0,
        "meta_classification_type": "U",
        "meta_norad_cat_id": 38062,
        "meta_element_set_no": 999,
        "meta_rev_at_epoch": 62850,
        "meta_bstar": 0.0021975764,
        "meta_mean_motion_dot": 0.00023445,
        "meta_mean_motion_ddot": 0,
        "tle_line1": "1 38062U 93036BRU 25334.71589981  .00023445  00000+0  21976-2 0  9999",
        "tle_line2": "2 38062  74.0086 314.7340 0011879  83.9086  94.2953 14.93896276628506"
      },
      "geometry": {
        "type": "Point",
        "coordinates": [
          168.05964461547555,
          -64.23738157043805
        ]
      }
    },
    {
      "type": "Feature",
      "properties": {
        "norad_id": 38064,
        "name": "COSMOS 2251 DEB",
        "group": "cosmos-2251-debris",
        "lat": 14.029722221988843,
        "lon": -40.09299365567718,
        "alt_km": 711.910175928092,
        "timestamp": "2025-12-02T06:27:53.409390+00:00",
        "meta_object_name": "COSMOS 2251 DEB",
        "meta_object_id": "1993-036BRW",
        "meta_epoch": "2025-12-01T18:09:41.027904",
        "meta_mean_motion": 14.56148179,
        "meta_eccentricity": 0.0047577,
        "meta_inclination": 74.0207,
        "meta_ra_of_asc_node": 144.9857,
        "meta_arg_of_pericenter": 266.2955,
        "meta_mean_anomaly": 93.2768,
        "meta_ephemeris_type": 0,
        "meta_classification_type": "U",
        "meta_norad_cat_id": 38064,
        "meta_element_set_no": 999,
        "meta_rev_at_epoch": 71705,
        "meta_bstar": 0.00093506,
        "meta_mean_motion_dot": 4.163e-05,
        "meta_mean_motion_ddot": 0,
        "tle_line1": "1 38064U 93036BRW 25335.75672486  .00004163  00000+0  93506-3 0  9994",
        "tle_line2": "2 38064  74.0207 144.9857 0047577 266.2955  93.2768 14.56148179717057"
      },
      "geometry": {
        "type": "Point",
        "coordinates": [
          -40.09299365567718,
          14.029722221988843
        ]
      }
    },
    {
      "type": "Feature",
      "properties": {
        "norad_id": 38067,
        "name": "COSMOS 2251 DEB",
        "group": "cosmos-2251-debris",
        "lat": -36.235878154189415,
        "lon": -77.58028920882279,
        "alt_km": 722.2284433275008,
        "timestamp": "2025-12-02T06:27:53.409400+00:00",
        "meta_object_name": "COSMOS 2251 DEB",
        "meta_object_id": "1993-036BRZ",
        "meta_epoch": "2025-11-29T04:46:36.876288",
        "meta_mean_motion": 14.61044936,
        "meta_eccentricity": 0.00691529,
        "meta_inclination": 74.017,
        "meta_ra_of_asc_node": 300.4181,
        "meta_arg_of_pericenter": 91.9303,
        "meta_mean_anomaly": 288.2542,
        "meta_ephemeris_type": 0,
        "meta_classification_type": "U",
        "meta_norad_cat_id": 38067,
        "meta_element_set_no": 999,
        "meta_rev_at_epoch": 62358,
        "meta_bstar": 0.00037425936,
        "meta_mean_motion_dot": 1.87e-05,
        "meta_mean_motion_ddot": 0,
        "tle_line1": "1 38067U 93036BRZ 25333.19903792  .00001870  00000+0  37426-3 0  9991",
        "tle_line2": "2 38067  74.0170 300.4181 0069152  91.9303 288.2542 14.61044936623583"
      },
      "geometry": {
        "type": "Point",
        "coordinates": [
          -77.58028920882279,
          -36.235878154189415
        ]
      }
    },
    {
      "type": "Feature",
      "properties": {
        "norad_id": 38068,
        "name": "COSMOS 2251 DEB",
        "group": "cosmos-2251-debris",
        "lat": -45.63127493848687,
        "lon": -49.551070909650505,
        "alt_km": 783.248326420171,
        "timestamp": "2025-12-02T06:27:53.409410+00:00",
        "meta_object_name": "COSMOS 2251 DEB",
        "meta_object_id": "1993-036BSA",
        "meta_epoch": "2025-11-26T00:12:22.263264",
        "meta_mean_motion": 14.35960004,
        "meta_eccentricity": 0.00240903,
        "meta_inclination": 74.0219,
        "meta_ra_of_asc_node": 338.9788,
        "meta_arg_of_pericenter": 72.1007,
        "meta_mean_anomaly": 288.2769,
        "meta_ephemeris_type": 0,
        "meta_classification_type": "U",
        "meta_norad_cat_id": 38068,
        "meta_element_set_no": 999,
        "meta_rev_at_epoch": 66406,
        "meta_bstar": 0.00028750999,
        "meta_mean_motion_dot": 8.11e-06,
        "meta_mean_motion_ddot": 0,
        "tle_line1": "1 38068U 93036BSA 25330.00859101  .00000811  00000+0  28751-3 0  9998",
        "tle_line2": "2 38068  74.0219 338.9788 0024090  72.1007 288.2769 14.35960004664064"
      },
      "geometry": {
        "type": "Point",
        "coordinates": [
          -49.551070909650505,
          -45.63127493848687
        ]
      }
    },
    {
      "type": "Feature",
      "properties": {
        "norad_id": 38197,
        "name": "COSMOS 2251 DEB",
        "group": "cosmos-2251-debris",
        "lat": -30.188397473932184,
        "lon": 7.946924659846929,
        "alt_km": 626.8533298908033,
        "timestamp": "2025-12-02T06:27:53.409420+00:00",
        "meta_object_name": "COSMOS 2251 DEB",
        "meta_object_id": "1993-036BSM",
        "meta_epoch": "2025-11-30T20:22:30.930240",
        "meta_mean_motion": 14.72855932,
        "meta_eccentricity": 0.01292085,
        "meta_inclination": 73.9391,
        "meta_ra_of_asc_node": 20.3775,
        "meta_arg_of_pericenter": 260.5427,
        "meta_mean_anomaly": 98.1121,
        "meta_ephemeris_type": 0,
        "meta_classification_type": "U",
        "meta_norad_cat_id": 38197,
        "meta_element_set_no": 999,
        "meta_rev_at_epoch": 85580,
        "meta_bstar": 0.0048480402,
        "meta_mean_motion_dot": 0.00035581,
        "meta_mean_motion_ddot": 0,
        "tle_line1": "1 38197U 93036BSM 25334.84896910  .00035581  00000+0  48480-2 0  9998",
        "tle_line2": "2 38197  73.9391  20.3775 0129208 260.5427  98.1121 14.72855932855808"
      },
      "geometry": {
        "type": "Point",
        "coordinates": [
          7.946924659846929,
          -30.188397473932184
        ]
      }
    },
    {
      "type": "Feature",
      "properties": {
        "norad_id": 38199,
        "name": "COSMOS 2251 DEB",
        "group": "cosmos-2251-debris",
        "lat": -63.39115127384648,
        "lon": -65.55012990800574,
        "alt_km": 1152.167546224412,
        "timestamp": "2025-12-02T06:27:53.409430+00:00",
        "meta_object_name": "COSMOS 2251 DEB",
        "meta_object_id": "1993-036BSP",
        "meta_epoch": "2025-12-01T15:09:45.800640",
        "meta_mean_motion": 13.64774241,
        "meta_eccentricity": 0.03692427,
        "meta_inclination": 73.9554,
        "meta_ra_of_asc_node": 80.4375,
        "meta_arg_of_pericenter": 9.1711,
        "meta_mean_anomaly": 351.5903,
        "meta_ephemeris_type": 0,
        "meta_classification_type": "U",
        "meta_norad_cat_id": 38199,
        "meta_element_set_no": 999,
        "meta_rev_at_epoch": 60870,
        "meta_bstar": 0.00044539918,
        "meta_mean_motion_dot": 5.49e-06,
        "meta_mean_motion_ddot": 0,
        "tle_line1": "1 38199U 93036BSP 25335.63178010  .00000549  00000+0  44540-3 0  9992",
        "tle_line2": "2 38199  73.9554  80.4375 0369242   9.1711 351.5903 13.64774241608703"
      },
      "geometry": {
        "type": "Point",
        "coordinates": [
          -65.55012990800574,
          -63.39115127384648
        ]
      }
    },
    {
      "type": "Feature",
      "properties": {
        "norad_id": 38208,
        "name": "COSMOS 2251 DEB",
        "group": "cosmos-2251-debris",
        "lat": -70.94380105348571,
        "lon": -24.172978635906258,
        "alt_km": 625.6447931599741,
        "timestamp": "2025-12-02T06:27:53.409440+00:00",
        "meta_object_name": "COSMOS 2251 DEB",
        "meta_object_id": "1993-036BSY",
        "meta_epoch": "2025-12-01T14:47:33.215424",
        "meta_mean_motion": 14.83128009,
        "meta_eccentricity": 0.00041446,
        "meta_inclination": 74.0053,
        "meta_ra_of_asc_node": 100.9823,
        "meta_arg_of_pericenter": 184.0286,
        "meta_mean_anomaly": 190.2464,
        "meta_ephemeris_type": 0,
        "meta_classification_type": "U",
        "meta_norad_cat_id": 38208,
        "meta_element_set_no": 999,
        "meta_rev_at_epoch": 70994,
        "meta_bstar": 0.0028439647,
        "meta_mean_motion_dot": 0.00023238,
        "meta_mean_motion_ddot": 0,
        "tle_line1": "1 38208U 93036BSY 25335.61635666  .00023238  00000+0  28440-2 0  9996",
        "tle_line2": "2 38208  74.0053 100.9823 0004144 184.0286 190.2464 14.83128009709948"
      },
      "geometry": {
        "type": "Point",
        "coordinates": [
          -24.172978635906258,
          -70.94380105348571
        ]
      }
    }
  ]
}